[{"OBJECT_NAME":"STARLINK-30437","OBJECT_ID":"2023-156J","EPOCH":"2026-03-09T06:24:08.785440","MEAN_MOTION":15.30194159,"ECCENTRICITY":0.0001127,"INCLINATION":53.1603,"RA_OF_ASC_NODE":80.1618,"ARG_OF_PERICENTER":92.6776,"MEAN_ANOMALY":267.4354,"EPHEMERIS_TYPE":0,"CLASSIFICATION_TYPE":"U","NORAD_CAT_ID":58036,"ELEMENT_SET_NO":999,"REV_AT_EPOCH":13620,"BSTAR":-9.07274e-6,"MEAN_MOTION_DOT":-6.28e-6,"MEAN_MOTION_DDOT":0},{"OBJECT_NAME":"SCS-01 M","OBJECT_ID":"2025-100M","EPOCH":"2026-03-09T23:50:15.541152","MEAN_MOTION":15.31880861,"ECCENTRICITY":0.00078021,"INCLINATION":97.3725,"RA_OF_ASC_NODE":145.6908,"ARG_OF_PERICENTER":292.3826,"MEAN_ANOMALY":67.6588,"EPHEMERIS_TYPE":0,"CLASSIFICATION_TYPE":"U","NORAD_CAT_ID":63993,"ELEMENT_SET_NO":999,"REV_AT_EPOCH":4565,"BSTAR":0.0012010051,"MEAN_MOTION_DOT":0.00037061,"MEAN_MOTION_DDOT":0}]
